NORAD_CAT_ID,OBJECT_NAME,OBJECT_TYPE,EPOCH,MEAN_MOTION,ECCENTRICITY,INCLINATION,RA_OF_ASC_NODE,ARG_OF_PERICENTER,MEAN_ANOMALY,BSTAR,MEAN_MOTION_DOT,MEAN_MOTION_DDOT,TLE_LINE0,TLE_LINE1,TLE_LINE2,SEMIMAJOR_AXIS,PERIOD,APOGEE,PERIGEE,DECAYED
52863.0,STARLINK-4270,PAYLOAD,2022-08-17 14:00:01,15.49883182,0.0001230999999999,53.2149,103.8474,58.271,50.6636,0.00078361,0.00044272,0.0,0 STARLINK-4270,1 52863U 22062AK  22229.58334491  .00044272  00000-0  78361-3 0  9997,2 52863  53.2149 103.8474 0001231  58.2710  50.6636 15.49883182  1306,6795.204000000002,92.91,417.906,416.233,0.0
52863.0,STARLINK-4270,PAYLOAD,2022-08-17 16:00:00,15.49904202,0.0001252,53.215,103.4494,59.9786,154.1812,0.00036615,0.00020398,0.0,0 STARLINK-4270,1 52863U 22062AK  22229.66667824  .00020398  00000-0  36615-3 0  9994,2 52863  53.2150 103.4494 0001252  59.9786 154.1812 15.49904202 10112,6795.143,92.909,417.859,416.157,0.0
52863.0,STARLINK-4270,PAYLOAD,2022-08-18 08:00:01,15.49888478,0.0001468,53.2146,100.2636,58.6596,277.389,-0.00074807,-0.00042683,0.0,0 STARLINK-4270,1 52863U 22062AK  22230.33334491 -.00042683  00000-0 -74807-3 0  9999,2 52863  53.2146 100.2636 0001468  58.6596 277.3890 15.49888478 10215,6795.189,92.91,418.052,416.056,0.0
52863.0,STARLINK-4270,PAYLOAD,2022-08-18 14:00:01,15.49855493,0.0001416999999999,53.2148,99.0679,64.8577,226.8781,0.00089915,0.00050859,0.0,0 STARLINK-4270,1 52863U 22062AK  22230.58334491  .00050859  00000-0  89915-3 0  9994,2 52863  53.2148  99.0679 0001417  64.8577 226.8781 15.49855493  1300,6795.285,92.912,418.11300000000006,416.18800000000016,0.0
52863.0,STARLINK-4270,PAYLOAD,2022-08-18 22:00:00,15.49887471,0.0001544,53.215,97.4767,57.733,294.9032,-6.125e-05,-3.926e-05,0.0,0 STARLINK-4270,1 52863U 22062AK  22230.91667824 -.00003926  00000-0 -61250-4 0  9998,2 52863  53.2150  97.4767 0001544  57.7330 294.9032 15.49887471 10308,6795.191999999999,92.91,418.106,416.008,0.0
52863.0,STARLINK-4270,PAYLOAD,2022-08-19 14:00:01,15.49836995,0.0001242,53.2156,94.2886,59.6906,54.7873,0.0007725,0.00043562,0.0,0 STARLINK-4270,1 52863U 22062AK  22231.58334491  .00043562  00000-0  77250-3 0  9997,2 52863  53.2156  94.2886 0001242  59.6906  54.7873 15.49836995  1306,6795.339,92.913,418.048,416.361,0.0
52863.0,STARLINK-4270,PAYLOAD,2022-08-19 22:00:00,15.49903532,0.000145,53.2166,92.7019,56.3245,119.0096,-0.0021823,-0.00122473,0.0,0 STARLINK-4270,1 52863U 22062AK  22231.91667824 -.00122473  00000-0 -21823-2 0  9998,2 52863  53.2166  92.7019 0001450  56.3245 119.0096 15.49903532  1303,6795.145,92.909,417.995,416.025,0.0
52863.0,STARLINK-4270,PAYLOAD,2022-08-20 08:00:01,15.49850553,9.95e-05,53.2174,90.7135,63.6383,277.7704,-0.014827,-0.00773802,0.0,0 STARLINK-4270,1 52863U 22062AK  22232.33334491 -.00773802  00000-0 -14827-1 0  9999,2 52863  53.2174  90.7135 0000995  63.6383 277.7704 15.49850553 10522,6795.3,92.912,417.841,416.489,0.0
52863.0,STARLINK-4270,PAYLOAD,2022-08-20 14:00:01,15.49485549,0.0001329,53.2176,89.5207,54.8749,242.0034,-0.0207849999999999,-0.01056316,0.0,0 STARLINK-4270,1 52863U 22062AK  22232.58334491 -.01056316  00000-0 -20785-1 0  9991,2 52863  53.2176  89.5207 0001329  54.8749 242.0034 15.49485549 10564,6796.3669999999975,92.934,419.135,417.329,0.0
52863.0,STARLINK-4270,PAYLOAD,2022-08-20 22:00:00,15.48729082,0.0001453,53.2176,87.9331,43.7349,313.111,-0.021466,-0.01061585,0.0,0 STARLINK-4270,1 52863U 22062AK  22232.91667824 -.01061585  00000-0 -21466-1 0  9998,2 52863  53.2176  87.9331 0001453  43.7349 313.1110 15.48729082  1304,6798.58,92.979,421.4330000000001,419.457,0.0
52863.0,STARLINK-4270,PAYLOAD,2022-08-21 06:00:00,15.47968042,0.00013,53.2174,86.3441,51.1998,4.7044,-0.021988,-0.01058859,0.0,0 STARLINK-4270,1 52863U 22062AK  22233.25001157 -.01058859  00000-0 -21988-1 0  9996,2 52863  53.2174  86.3441 0001300  51.1998   4.7044 15.47968042 10669,6800.808000000001,93.025,423.557,421.789,0.0
52863.0,STARLINK-4270,PAYLOAD,2022-08-21 14:00:01,15.47207318,0.0001465999999999,53.2177,84.7569,51.3864,62.663,-0.022517,-0.01056133,0.0,0 STARLINK-4270,1 52863U 22062AK  22233.58334491 -.01056133  00000-0 -22517-1 0  9994,2 52863  53.2177  84.7569 0001466  51.3864  62.6630 15.47207318  1309,6803.0369999999975,93.071,425.899,423.905,0.0
52863.0,STARLINK-4270,PAYLOAD,2022-08-21 22:00:00,15.46448401,0.0001713,53.2175,83.1747,44.6394,126.6403,-0.023142,-0.01057093,0.0,0 STARLINK-4270,1 52863U 22062AK  22233.91667824 -.01057093  00000-0 -23142-1 0  9991,2 52863  53.2175  83.1747 0001713  44.6394 126.6403 15.46448401  1304,6805.263000000001,93.117,428.293,425.962,0.0
52863.0,STARLINK-4270,PAYLOAD,2022-08-22 06:00:00,15.45690702,0.0001457,53.2174,81.5911,55.396,172.2031,-0.023842,-0.01060425,0.0,0 STARLINK-4270,1 52863U 22062AK  22234.25001157 -.01060425  00000-0 -23842-1 0  9990,2 52863  53.2174  81.5911 0001457  55.3960 172.2031 15.45690702 10824,6807.486,93.162,430.343,428.359,0.0
52863.0,STARLINK-4270,PAYLOAD,2022-08-22 12:00:00,15.45119657,0.0001558,53.2173,80.4044,50.39100000000001,128.8494,-0.024265,-0.01058418,0.0,0 STARLINK-4270,1 52863U 22062AK  22234.50001157 -.01058418  00000-0 -24265-1 0  9997,2 52863  53.2173  80.4044 0001558  50.3910 128.8494 15.45119657  1308,6809.1640000000025,93.197,432.089,429.968,0.0
52863.0,STARLINK-4270,PAYLOAD,2022-08-22 22:00:00,15.44171332,0.0001554,53.2174,78.4327,40.609,296.8893,-0.025089,-0.01059235,0.0,0 STARLINK-4270,1 52863U 22062AK  22234.91667824 -.01059235  00000-0 -25089-1 0  9994,2 52863  53.2174  78.4327 0001554  40.6090 296.8893 15.44171332  1303,6811.951,93.254,434.875,432.757,0.0
52863.0,STARLINK-4270,PAYLOAD,2022-08-23 06:00:00,15.43411073,0.0001306,53.2174,76.8544,49.1539,341.9267,-0.025718,-0.01058045,0.0,0 STARLINK-4270,1 52863U 22062AK  22235.25001157 -.01058045  00000-0 -25718-1 0  9990,2 52863  53.2174  76.8544 0001306  49.1539 341.9267 15.43411073 10971,6814.188,93.3,436.943,435.163,0.0
52863.0,STARLINK-4270,PAYLOAD,2022-08-23 14:00:01,15.42649463,0.0001503,53.2175,75.2783,46.3846,37.3654,-0.0262779999999999,-0.01068706,0.0,0 STARLINK-4270,1 52863U 22062AK  22235.58334491 -.01068706  00000-0 -26278-1 0  9993,2 52863  53.2175  75.2783 0001503  46.3846  37.3654 15.42649463  1307,6816.43,93.346,439.32,437.271,0.0
52863.0,STARLINK-4270,PAYLOAD,2022-08-23 22:00:01,15.41890862,0.0001675,53.2175,73.7069,44.9272,90.6413,-0.026999,-0.01070213,0.0,0 STARLINK-4270,1 52863U 22062AK  22235.91668981 -.01070213  00000-0 -26999-1 0  9990,2 52863  53.2175  73.7069 0001675  44.9272  90.6413 15.41890862  1309,6818.666,93.392,441.673,439.389,0.0
52863.0,STARLINK-4270,PAYLOAD,2022-08-24 06:00:00,15.41132719,0.0001441999999999,53.2175,72.1339,59.5922,126.7556,-0.02776,-0.01072493,0.0,0 STARLINK-4270,1 52863U 22062AK  22236.25001157 -.01072493  00000-0 -27760-1 0  9993,2 52863  53.2175  72.1339 0001442  59.5922 126.7556 15.41132719 11139,6820.901999999999,93.438,443.751,441.783,0.0
52863.0,STARLINK-4270,PAYLOAD,2022-08-24 14:00:01,15.40371555,0.000145,53.2176,70.5637,59.938,176.3406,-0.028364,-0.01068677,0.0,0 STARLINK-4270,1 52863U 22062AK  22236.58334491 -.01068677  00000-0 -28364-1 0  9999,2 52863  53.2176  70.5637 0001450  59.9380 176.3406 15.40371555  1309,6823.149,93.484,446.003,444.025,0.0
52863.0,STARLINK-4270,PAYLOAD,2022-08-24 22:00:00,15.39612056,0.0001398,53.2176,68.9975,57.4477,227.8477,-0.029098,-0.01068996,0.0,0 STARLINK-4270,1 52863U 22062AK  22236.91667824 -.01068996  00000-0 -29098-1 0  9994,2 52863  53.2176  68.9975 0001398  57.4477 227.8477 15.39612056  1308,6825.393,93.53,448.212,446.30300000000005,0.0
52863.0,STARLINK-4270,PAYLOAD,2022-08-25 06:00:02,15.38854309,0.0001365,53.2175,67.4297,47.8143,285.6509,-0.029951,-0.01072796,0.0,0 STARLINK-4270,1 52863U 22062AK  22237.25002315 -.01072796  00000-0 -29951-1 0  9991,2 52863  53.2175  67.4297 0001365  47.8143 285.6509 15.38854309 11289,6827.6330000000025,93.576,450.43,448.566,0.0
52863.0,STARLINK-4270,PAYLOAD,2022-08-25 14:00:01,15.38093423,0.0001409,53.2177,65.8652,46.7917,333.802,-0.030604,-0.01069421,0.0,0 STARLINK-4270,1 52863U 22062AK  22237.58334491 -.01069421  00000-0 -30604-1 0  9998,2 52863  53.2177  65.8652 0001409  46.7917 333.8020 15.38093423  1302,6829.885,93.622,452.712,450.787,0.0
52863.0,STARLINK-4270,PAYLOAD,2022-08-25 22:00:00,15.37333189,0.0001492,53.2176,64.3043,46.5391,20.3339,-0.031355,-0.01068835,0.0,0 STARLINK-4270,1 52863U 22062AK  22237.91667824 -.01068835  00000-0 -31355-1 0  9996,2 52863  53.2176  64.3043 0001492  46.5391  20.3339 15.37333189  1301,6832.136,93.669,455.02,452.982,0.0
52863.0,STARLINK-4270,PAYLOAD,2022-08-26 06:00:00,15.36573362,0.0001554999999999,53.2176,62.7418,46.0944,66.1468,-0.032111,-0.0106797,0.0,0 STARLINK-4270,1 52863U 22062AK  22238.25001157 -.01067970  00000-0 -32111-1 0  9995,2 52863  53.2176  62.7418 0001555  46.0944  66.1468 15.36573362 11432,6834.388000000001,93.715,457.316,455.19,0.0
52863.0,STARLINK-4270,PAYLOAD,2022-08-26 14:00:01,15.35813051,0.0001737,53.2179,61.1827,43.5597,113.2001,-0.032855,-0.01066335,0.0,0 STARLINK-4270,1 52863U 22062AK  22238.58335648 -.01066335  00000-0 -32855-1 0  9995,2 52863  53.2179  61.1827 0001737  43.5597 113.2001 15.35813051  1303,6836.644,93.761,459.696,457.321,0.0
52863.0,STARLINK-4270,PAYLOAD,2022-08-26 22:00:00,15.35051899,0.0001514,53.2176,59.6272,58.6104,141.6267,-0.033567,-0.01063271,0.0,0 STARLINK-4270,1 52863U 22062AK  22238.91667824 -.01063271  00000-0 -33567-1 0  9993,2 52863  53.2176  59.6272 0001514  58.6104 141.6267 15.35051899  1303,6838.903,93.808,461.804,459.733,0.0
52863.0,STARLINK-4270,PAYLOAD,2022-08-27 14:00:01,15.33535476,0.0001446,53.2177,56.5166,53.3968,231.1856,-0.035371,-0.01067037,0.0,0 STARLINK-4270,1 52863U 22062AK  22239.58334491 -.01067037  00000-0 -35371-1 0  9997,2 52863  53.2177  56.5166 0001446  53.3968 231.1856 15.33535476  1301,6843.411,93.901,466.266,464.286,0.0
